[
{"Id":"1","Name":"Afghanistan","Alpha2": "AF","Alpha3":"AFG","Phonecode":"93","Currency":"Afghani","Currencycode":"AFN"},
{"Id":"2","Name":"Aland Islands","Alpha2": "AX","Alpha3":"ALA","Phonecode":"358","Currency":"EURO","Currencycode":"EUR"},
{"Id":"3","Name":"Albania","Alpha2": "AL","Alpha3":"ALB","Phonecode":"355","Currency":"Lek","Currencycode":"ALL"},
{"Id":"4","Name":"Algeria","Alpha2": "DZ","Alpha3":"DZA","Phonecode":"213","Currency":"Algerian Dinar","Currencycode":"DZD"},
{"Id":"5","Name":"American Samoa","Alpha2": "AS","Alpha3":"ASM","Phonecode":"1-684","Currency":"US Dollar","Currencycode":"USD"},
{"Id":"6","Name":"Andorra","Alpha2": "AD","Alpha3":"AND","Phonecode":"376","Currency":"Euro","Currencycode":"EUR"},
{"Id":"7","Name":"Angola","Alpha2": "AO","Alpha3":"AGO","Phonecode":"244","Currency":"Kwanza","Currencycode":"AOA"},
{"Id":"8","Name":"Anguilla","Alpha2": "AI","Alpha3":"AIA","Phonecode":"1-264","Currency":"East Caribbean Dollar","Currencycode":"XCD"},
{"Id":"9","Name":"Antarctica ","Alpha2": "AQ","Alpha3":"ATA","Phonecode":"672","Currency":"","Currencycode":""},
{"Id":"10","Name":"Antigua and Barbuda","Alpha2": "AG","Alpha3":"ATG","Phonecode":"1-268","Currency":"East Caribbean Dollar","Currencycode":"XCD"},
{"Id":"11","Name":"Argentina","Alpha2": "AR","Alpha3":"ARG","Phonecode":"54","Currency":"Argentine Peso","Currencycode":"ARS"},
{"Id":"12","Name":"Armenia","Alpha2": "AM","Alpha3":"ARM","Phonecode":"374","Currency":"Armenian Dram","Currencycode":"AMD"},
{"Id":"13","Name":"Aruba","Alpha2": "AW","Alpha3":"ABW","Phonecode":"297","Currency":"Aruban Florin","Currencycode":"AWG"},
{"Id":"14","Name":"Australia","Alpha2": "AU","Alpha3":"AUS","Phonecode":"61","Currency":"Australian Dollar","Currencycode":"AUD"},
{"Id":"15","Name":"Austria","Alpha2": "AT","Alpha3":"AUT","Phonecode":"43","Currency":"Euro","Currencycode":"EUR"},
{"Id":"16","Name":"Azerbaijan","Alpha2": "AZ","Alpha3":"AZE","Phonecode":"994","Currency":"Azerbaijanian Manat","Currencycode":"AZN"},
{"Id":"17","Name":"Bahamas","Alpha2": "BS","Alpha3":"BHS","Phonecode":"1-242","Currency":"Bahamian Dollar","Currencycode":"BSD"},
{"Id":"18","Name":"Bahrain","Alpha2": "BH","Alpha3":"BHR","Phonecode":"973","Currency":"Bahraini Dinar","Currencycode":"BHD"},
{"Id":"19","Name":"Bangladesh","Alpha2": "BD","Alpha3":"BGD","Phonecode":"880","Currency":"Taka","Currencycode":"BDT"},
{"Id":"20","Name":"Barbados","Alpha2": "BB","Alpha3":"BRB","Phonecode":"1-246","Currency":"Barbados Dollar","Currencycode":"BBD"},
{"Id":"21","Name":"Belarus","Alpha2": "BY","Alpha3":"BLR","Phonecode":"375","Currency":"Belarussian Ruble","Currencycode":"BYN"},
{"Id":"22","Name":"Belgium","Alpha2": "BE","Alpha3":"BEL","Phonecode":"32","Currency":"Euro","Currencycode":"EUR"},
{"Id":"23","Name":"Belize","Alpha2": "BZ","Alpha3":"BLZ","Phonecode":"501","Currency":"Belize Dollar","Currencycode":"BZD"},
{"Id":"24","Name":"Benin","Alpha2": "BJ","Alpha3":"BEN","Phonecode":"229","Currency":"CFA Franc BCEAO","Currencycode":"XOF"},
{"Id":"25","Name":"Bermuda","Alpha2": "BM","Alpha3":"BMU","Phonecode":"1-441","Currency":"Bermudian Dollar","Currencycode":"BMD"},
{"Id":"26","Name":"Bhutan","Alpha2": "BT","Alpha3":"BTN","Phonecode":"975","Currency":"Ngultrum","Currencycode":"BTN, INR"},
{"Id":"27","Name":"Bolivia","Alpha2": "BO","Alpha3":"BOL","Phonecode":"591","Currency":"Boliviano,Mvdol","Currencycode":"BOB, BOV"},
{"Id":"28","Name":"Bosnia and Herzegovina","Alpha2": "BA","Alpha3":"BIH","Phonecode":"387","Currency":"US Dollar, Convertible Mark","Currencycode":"USD, BAM"},
{"Id":"29","Name":"Botswana","Alpha2": "BW","Alpha3":"BWA","Phonecode":"267","Currency":"Pula","Currencycode":"BWP"},
{"Id":"30","Name":"Bouvet Island","Alpha2": "BV","Alpha3":"BVT","Phonecode":"","Currency":"Norwegian Krone","Currencycode":"NOK"},
{"Id":"31","Name":"Brazil","Alpha2": "BR","Alpha3":"BRA","Phonecode":"55","Currency":"Brazilian Real","Currencycode":"BRL"},
{"Id":"32","Name":"British Virgin Islands","Alpha2": "VG","Alpha3":"VGB","Phonecode":"246","Currency":"US Dollar","Currencycode":"USD"},
{"Id":"33","Name":"British Indian Ocean Territory","Alpha2": "IO","Alpha3":"IOT","Phonecode":"1-284","Currency":"US Dollar","Currencycode":"USD"},
{"Id":"34","Name":"Brunei Darussalam","Alpha2": "BN","Alpha3":"BRN","Phonecode":"673","Currency":"Brunei Dollar","Currencycode":"BND"},
{"Id":"35","Name":"Bulgaria","Alpha2": "BG","Alpha3":"BGR","Phonecode":"359","Currency":"Bulgarian Lev","Currencycode":"BGN"},
{"Id":"36","Name":"Burkina Faso","Alpha2": "BF","Alpha3":"BFA","Phonecode":"226","Currency":"CFA Franc BCEAO","Currencycode":"XOF"},
{"Id":"37","Name":"Burundi","Alpha2": "BI","Alpha3":"BDI","Phonecode":"257","Currency":"Burundi Franc","Currencycode":"BIF"},
{"Id":"38","Name":"Cambodia","Alpha2": "KH","Alpha3":"KHM","Phonecode":"855","Currency":"Riel","Currencycode":"KHR"},
{"Id":"39","Name":"Cameroon","Alpha2": "CM","Alpha3":"CMR","Phonecode":"237","Currency":"CFA Franc BEAC","Currencycode":"XAF"},
{"Id":"40","Name":"Canada","Alpha2": "CA","Alpha3":"CAN","Phonecode":"1","Currency":"Canadian Dollar","Currencycode":"CAD"},
{"Id":"41","Name":"Cape Verde","Alpha2": "CV","Alpha3":"CPV","Phonecode":"238","Currency":"Cabo Verde Escudo","Currencycode":"CVE"},
{"Id":"42","Name":"Cayman Islands ","Alpha2": "KY","Alpha3":"CYM","Phonecode":"1-345","Currency":"Cayman Islands Dollar","Currencycode":"KYD"},
{"Id":"43","Name":"Central African Republic","Alpha2": "CF","Alpha3":"CAF","Phonecode":"236","Currency":"CFA Franc BEAC","Currencycode":"XAF"},
{"Id":"44","Name":"Chad","Alpha2": "TD","Alpha3":"TCD","Phonecode":"235","Currency":"CFA Franc BEAC","Currencycode":"XAF"},
{"Id":"45","Name":"Chile","Alpha2": "CL","Alpha3":"CHL","Phonecode":"56","Currency":"Chilean Peso,  Unidad de Fomento","Currencycode":"CLP, CLF"},
{"Id":"46","Name":"China","Alpha2": "CN","Alpha3":"CHN","Phonecode":"86","Currency":"Yuan Renminbi","Currencycode":"CNY"},
{"Id":"47","Name":"Hong Kong, SAR China","Alpha2": "HK","Alpha3":"HKG","Phonecode":"852","Currency":"Hong Kong Dollar","Currencycode":"HKD"},
{"Id":"48","Name":"Macao, SAR China","Alpha2": "MO","Alpha3":"MAC","Phonecode":"853","Currency":"Pataca","Currencycode":"MOP"},
{"Id":"49","Name":"Christmas Island","Alpha2": "CX","Alpha3":"CXR","Phonecode":"61","Currency":"Australian Dollar","Currencycode":"AUD"},
{"Id":"50","Name":"Cocos (Keeling) Islands","Alpha2": "CC","Alpha3":"CCK","Phonecode":"61","Currency":"Australian Dollar","Currencycode":"AUD"},
{"Id":"51","Name":"Colombia","Alpha2": "CO","Alpha3":"COL","Phonecode":"57","Currency":"Colombian Peso,Unidad de Valor Real","Currencycode":"COU,COP"},
{"Id":"52","Name":"Comoros","Alpha2": "KM","Alpha3":"COM","Phonecode":"269","Currency":"Comoro Franc","Currencycode":"KMF"},
{"Id":"53","Name":"Congo (Brazzaville) ","Alpha2": "CG","Alpha3":"COG","Phonecode":"242","Currency":"Congolese Franc, CFA Franc BEAC","Currencycode":"CDF, XAF"},
{"Id":"54","Name":"Congo, (Kinshasa)","Alpha2": "CD","Alpha3":"COD","Phonecode":"243","Currency":"Congolese Franc, CFA Franc BEAC","Currencycode":"CDF, XAF"},
{"Id":"55","Name":"Cook Islands ","Alpha2": "CK","Alpha3":"COK","Phonecode":"682","Currency":"New Zealand Dollar","Currencycode":"NZD"},
{"Id":"56","Name":"Costa Rica","Alpha2": "CR","Alpha3":"CRI","Phonecode":"506","Currency":"Costa Rican Colon","Currencycode":"CRC"},
{"Id":"57","Name":"Côte d'Ivoire","Alpha2": "CI","Alpha3":"CIV","Phonecode":"225","Currency":"CFA Franc BCEAO","Currencycode":"XOF"},
{"Id":"58","Name":"Croatia","Alpha2": "HR","Alpha3":"HRV","Phonecode":"385","Currency":"Kuna","Currencycode":"HRK"},
{"Id":"59","Name":"Cuba","Alpha2": "CU","Alpha3":"CUB","Phonecode":"53","Currency":"Cuban Peso, Peso Convertible","Currencycode":"CUP, CUC"},
{"Id":"60","Name":"Curacao","Alpha2": "CW","Alpha3":"CUW","Phonecode":"599","Currency":"Netherlands Antillean Guilder","Currencycode":"ANG"},
{"Id":"61","Name":"Cyprus","Alpha2": "CY","Alpha3":"CYP","Phonecode":"357","Currency":"Euro","Currencycode":"EUR"},
{"Id":"62","Name":"Czech Republic","Alpha2": "CZ","Alpha3":"CZE","Phonecode":"420","Currency":"Czech Koruna","Currencycode":"CZK"},
{"Id":"63","Name":"Democratic Republic of the Congo","Alpha2": "CD","Alpha3":"COD","Phonecode":"243","Currency":"Congolese Franc, CFA Franc BEAC","Currencycode":"CDF, XAF"},
{"Id":"64","Name":"Denmark","Alpha2": "DK","Alpha3":"DNK","Phonecode":"45","Currency":"Danish Krone","Currencycode":"DKK"},
{"Id":"65","Name":"Djibouti","Alpha2": "DJ","Alpha3":"DJI","Phonecode":"253","Currency":"Djibouti Franc","Currencycode":"DJF"},
{"Id":"66","Name":"Dominica","Alpha2": "DM","Alpha3":"DMA","Phonecode":"1-767","Currency":"East Caribbean Dollar","Currencycode":"XCD"},
{"Id":"67","Name":"Dominican Republic","Alpha2": "DO","Alpha3":"DOM","Phonecode":"1-809, 1-829, 1-849","Currency":"Dominican Peso","Currencycode":"DOP"},
{"Id":"68","Name":"Ecuador","Alpha2": "EC","Alpha3":"ECU","Phonecode":"593","Currency":"US Dollar","Currencycode":"USD"},
{"Id":"69","Name":"Egypt","Alpha2": "EG","Alpha3":"EGY","Phonecode":"20","Currency":"Egyptian Pound","Currencycode":"EGP"},
{"Id":"70","Name":"El Salvador","Alpha2": "SV","Alpha3":"SLV","Phonecode":"503","Currency":"El Salvador Colon, East Timor","Currencycode":"SVC, USD"},
{"Id":"71","Name":"Equatorial Guinea","Alpha2": "GQ","Alpha3":"GNQ","Phonecode":"240","Currency":"CFA Franc BEAC","Currencycode":"XAF"},
{"Id":"72","Name":"Eritrea","Alpha2": "ER","Alpha3":"ERI","Phonecode":"291","Currency":"Nakfa","Currencycode":"ERN"},
{"Id":"73","Name":"Estonia","Alpha2": "EE","Alpha3":"EST","Phonecode":"372","Currency":"Euro","Currencycode":"EUR"},
{"Id":"74","Name":"Ethiopia","Alpha2": "ET","Alpha3":"ETH","Phonecode":"251","Currency":"Ethiopian Birr","Currencycode":"ETB"},
{"Id":"75","Name":"Falkland Islands (Malvinas) ","Alpha2": "FK","Alpha3":"FLK","Phonecode":"500","Currency":"Falkland Islands Pound","Currencycode":"FKP"},
{"Id":"76","Name":"Faroe Islands","Alpha2": "FO","Alpha3":"FRO","Phonecode":"298","Currency":"Danish Krone","Currencycode":"DKK"},
{"Id":"77","Name":"Fiji","Alpha2": "FJ","Alpha3":"FJI","Phonecode":"679","Currency":"Fiji Dollar","Currencycode":"FJD"},
{"Id":"78","Name":"Finland","Alpha2": "FI","Alpha3":"FIN","Phonecode":"358","Currency":"Euro","Currencycode":"EUR"},
{"Id":"79","Name":"France","Alpha2": "FR","Alpha3":"FRA","Phonecode":"33","Currency":"Euro","Currencycode":"EUR"},
{"Id":"80","Name":"French Guiana","Alpha2": "GF","Alpha3":"GUF","Phonecode":"594","Currency":"Euro","Currencycode":"EUR"},
{"Id":"81","Name":"French Polynesia","Alpha2": "PF","Alpha3":"PYF","Phonecode":"689","Currency":"CFP Franc","Currencycode":"XPF"},
{"Id":"82","Name":"French Southern Territories","Alpha2": "TF","Alpha3":"ATF","Phonecode":"","Currency":"Euro","Currencycode":"EUR"},
{"Id":"83","Name":"Gabon","Alpha2": "GA","Alpha3":"GAB","Phonecode":"241","Currency":"CFA Franc BEAC","Currencycode":"XAF"},
{"Id":"84","Name":"Gambia","Alpha2": "GM","Alpha3":"GMB","Phonecode":"220","Currency":"Dalasi","Currencycode":"GMD"},
{"Id":"85","Name":"Georgia","Alpha2": "GE","Alpha3":"GEO","Phonecode":"995","Currency":"Lari","Currencycode":"GEL"},
{"Id":"86","Name":"Germany","Alpha2": "DE","Alpha3":"DEU","Phonecode":"49","Currency":"Euro","Currencycode":"EUR"},
{"Id":"87","Name":"Ghana","Alpha2": "GH","Alpha3":"GHA","Phonecode":"233","Currency":"Ghana Cedi","Currencycode":"GHS"},
{"Id":"88","Name":"Gibraltar ","Alpha2": "GI","Alpha3":"GIB","Phonecode":"350","Currency":"Gibraltar Pound","Currencycode":"GIP"},
{"Id":"89","Name":"Greece","Alpha2": "GR","Alpha3":"GRC","Phonecode":"30","Currency":"Euro","Currencycode":"EUR"},
{"Id":"90","Name":"Greenland","Alpha2": "GL","Alpha3":"GRL","Phonecode":"299","Currency":"Danish Krone","Currencycode":"DKK"},
{"Id":"91","Name":"Grenada","Alpha2": "GD","Alpha3":"GRD","Phonecode":"1-473","Currency":"East Caribbean Dollar","Currencycode":"XCD"},
{"Id":"92","Name":"Guadeloupe","Alpha2": "GP","Alpha3":"GLP","Phonecode":"590","Currency":"Euro","Currencycode":"EUR"},
{"Id":"93","Name":"Guam","Alpha2": "GU","Alpha3":"GUM","Phonecode":"1-671","Currency":"US Dollar","Currencycode":"USD"},
{"Id":"94","Name":"Guatemala","Alpha2": "GT","Alpha3":"GTM","Phonecode":"502","Currency":"Quetzal","Currencycode":"GTQ"},
{"Id":"95","Name":"Guernsey","Alpha2": "GG","Alpha3":"GGY","Phonecode":"44-1481","Currency":"Pound Sterling","Currencycode":"GBP"},
{"Id":"96","Name":"Guinea","Alpha2": "GN","Alpha3":"GIN","Phonecode":"224","Currency":"Guinea Franc","Currencycode":"GNF"},
{"Id":"97","Name":"Guinea-Bissau","Alpha2": "GW","Alpha3":"GNB","Phonecode":"245","Currency":"CFA Franc BCEAO","Currencycode":"XOF"},
{"Id":"98","Name":"Guyana","Alpha2": "GY","Alpha3":"GUY","Phonecode":"592","Currency":"Guyana Dollar","Currencycode":"GYD"},
{"Id":"99","Name":"Haiti","Alpha2": "HT","Alpha3":"HTI","Phonecode":"509","Currency":"Gourde, US Dollar","Currencycode":"HTG, USD"},
{"Id":"100","Name":"Heard and Mcdonald Islands","Alpha2": "HM","Alpha3":"HMD","Phonecode":"","Currency":"Australian Dollar","Currencycode":"AUD"},
{"Id":"101","Name":"Holy See (Vatican City State)","Alpha2": "VA","Alpha3":"VAT","Phonecode":"379","Currency":"Euro","Currencycode":"EUR"},
{"Id":"102","Name":"Honduras","Alpha2": "HN","Alpha3":"HND","Phonecode":"504","Currency":"Lempira","Currencycode":"HNL"},
{"Id":"103","Name":"Hungary","Alpha2": "HU","Alpha3":"HUN","Phonecode":"36","Currency":"Forint","Currencycode":"HUF"},
{"Id":"104","Name":"Iceland","Alpha2": "IS","Alpha3":"ISL","Phonecode":"354","Currency":"Iceland Krona","Currencycode":"ISK"},
{"Id":"105","Name":"India","Alpha2": "IN","Alpha3":"IND","Phonecode":"91","Currency":"Indian Rupee","Currencycode":"INR"},
{"Id":"106","Name":"Indonesia","Alpha2": "ID","Alpha3":"IDN","Phonecode":"62","Currency":"Rupiah","Currencycode":"IDR"},
{"Id":"107","Name":"Iran, Islamic Republic of","Alpha2": "IR","Alpha3":"IRN","Phonecode":"98","Currency":"Iranian Rial","Currencycode":"IRR"},
{"Id":"108","Name":"Iraq","Alpha2": "IQ","Alpha3":"IRQ","Phonecode":"964","Currency":"Iraqi Dinar","Currencycode":"IQD"},
{"Id":"109","Name":"Ireland","Alpha2": "IE","Alpha3":"IRL","Phonecode":"353","Currency":"Euro","Currencycode":"EUR"},
{"Id":"110","Name":"Isle of Man ","Alpha2": "IM","Alpha3":"IMN","Phonecode":"44-1624","Currency":"Pound Sterling","Currencycode":"GBP"},
{"Id":"111","Name":"Israel","Alpha2": "IL","Alpha3":"ISR","Phonecode":"972","Currency":"New Israeli Sheqel","Currencycode":"ILS"},
{"Id":"112","Name":"Italy","Alpha2": "IT","Alpha3":"ITA","Phonecode":"39","Currency":"Euro","Currencycode":"EUR"},
{"Id":"113","Name":"Jamaica","Alpha2": "JM","Alpha3":"JAM","Phonecode":"1-876","Currency":"Jamaican Dollar","Currencycode":"JMD"},
{"Id":"114","Name":"Japan","Alpha2": "JP","Alpha3":"JPN","Phonecode":"81","Currency":"Yen","Currencycode":"JPY"},
{"Id":"115","Name":"Jersey","Alpha2": "JE","Alpha3":"JEY","Phonecode":"44-1534","Currency":"Pound Sterling","Currencycode":"GBP"},
{"Id":"116","Name":"Jordan","Alpha2": "JO","Alpha3":"JOR","Phonecode":"962","Currency":"Jordanian Dinar","Currencycode":"JOD"},
{"Id":"117","Name":"Kazakhstan","Alpha2": "KZ","Alpha3":"KAZ","Phonecode":"7","Currency":"Tenge","Currencycode":"KZT"},
{"Id":"118","Name":"Kenya","Alpha2": "KE","Alpha3":"KEN","Phonecode":"254","Currency":"Kenyan Shilling","Currencycode":"KES"},
{"Id":"119","Name":"Kiribati","Alpha2": "KI","Alpha3":"KIR","Phonecode":"686","Currency":"Australian Dollar","Currencycode":"AUD"},
{"Id":"120","Name":"Korea (North)","Alpha2": "KP","Alpha3":"PRK","Phonecode":"850","Currency":"North Korean Won","Currencycode":"KPW"},
{"Id":"121","Name":"Korea (South)","Alpha2": "KR","Alpha3":"KOR","Phonecode":"82","Currency":"Won","Currencycode":"KRW"},
{"Id":"122","Name":"Kosovo","Alpha2": "XK","Alpha3":"XKX","Phonecode":"383","Currency":"EUro","Currencycode":"EUR"},
{"Id":"123","Name":"Kuwait","Alpha2": "KW","Alpha3":"KWT","Phonecode":"965","Currency":"Kuwaiti Dinar","Currencycode":"KWD"},
{"Id":"124","Name":"Kyrgyzstan","Alpha2": "KG","Alpha3":"KGZ","Phonecode":"996","Currency":"Som","Currencycode":"KGS"},
{"Id":"125","Name":"Lao PDR","Alpha2": "LA","Alpha3":"LAO","Phonecode":"856","Currency":"Kip","Currencycode":"LAK"},
{"Id":"126","Name":"Latvia","Alpha2": "LV","Alpha3":"LVA","Phonecode":"371","Currency":"Euro","Currencycode":"EUR"},
{"Id":"127","Name":"Lebanon","Alpha2": "LB","Alpha3":"LBN","Phonecode":"961","Currency":"Lebanese Pound","Currencycode":"LBP"},
{"Id":"128","Name":"Lesotho","Alpha2": "LS","Alpha3":"LSO","Phonecode":"266","Currency":"Loti, Rand","Currencycode":"LSL, ZAR"},
{"Id":"129","Name":"Liberia","Alpha2": "LR","Alpha3":"LBR","Phonecode":"231","Currency":"Liberian Dollar","Currencycode":"LRD"},
{"Id":"130","Name":"Libya","Alpha2": "LY","Alpha3":"LBY","Phonecode":"218","Currency":"Libyan Dinar","Currencycode":"LYD"},
{"Id":"131","Name":"Liechtenstein","Alpha2": "LI","Alpha3":"LIE","Phonecode":"423","Currency":"Swiss Franc","Currencycode":"CHF"},
{"Id":"132","Name":"Lithuania","Alpha2": "LT","Alpha3":"LTU","Phonecode":"370","Currency":"Euro","Currencycode":"EUR"},
{"Id":"133","Name":"Luxembourg","Alpha2": "LU","Alpha3":"LUX","Phonecode":"352","Currency":"Euro","Currencycode":"EUR"},
{"Id":"134","Name":"Macedonia, Republic of","Alpha2": "MK","Alpha3":"MKD","Phonecode":"389","Currency":"Denar","Currencycode":"MKD"},
{"Id":"135","Name":"Madagascar","Alpha2": "MG","Alpha3":"MDG","Phonecode":"261","Currency":"Malagasy Ariary","Currencycode":"MGA"},
{"Id":"136","Name":"Malawi","Alpha2": "MW","Alpha3":"MWI","Phonecode":"265","Currency":"Kwacha","Currencycode":"MWK"},
{"Id":"137","Name":"Malaysia","Alpha2": "MY","Alpha3":"MYS","Phonecode":"60","Currency":"Malaysian Ringgit","Currencycode":"MYR"},
{"Id":"138","Name":"Maldives","Alpha2": "MV","Alpha3":"MDV","Phonecode":"960","Currency":"Rufiyaa","Currencycode":"MVR"},
{"Id":"139","Name":"Mali","Alpha2": "ML","Alpha3":"MLI","Phonecode":"223","Currency":"CFA Franc BCEAO","Currencycode":"XOF"},
{"Id":"140","Name":"Malta","Alpha2": "MT","Alpha3":"MLT","Phonecode":"356","Currency":"Euro","Currencycode":"EUR"},
{"Id":"141","Name":"Marshall Islands","Alpha2": "MH","Alpha3":"MHL","Phonecode":"692","Currency":"US Dollar","Currencycode":"USD"},
{"Id":"142","Name":"Martinique","Alpha2": "MQ","Alpha3":"MTQ","Phonecode":"596","Currency":"Euro","Currencycode":"EUR"},
{"Id":"143","Name":"Mauritania","Alpha2": "MR","Alpha3":"MRT","Phonecode":"222","Currency":"Ouguiya","Currencycode":"MRU"},
{"Id":"144","Name":"Mauritius","Alpha2": "MU","Alpha3":"MUS","Phonecode":"230","Currency":"Mauritius Rupee","Currencycode":"MUR"},
{"Id":"145","Name":"Mayotte","Alpha2": "YT","Alpha3":"MYT","Phonecode":"262","Currency":"Euro","Currencycode":"EUR"},
{"Id":"146","Name":"Mexico","Alpha2": "MX","Alpha3":"MEX","Phonecode":"52","Currency":"Mexican Peso ,Mexican Unidad de Inversion (UDI)","Currencycode":"MXN,MXV"},
{"Id":"147","Name":"Micronesia, Federated States of","Alpha2": "FM","Alpha3":"FSM","Phonecode":"691","Currency":"US Dollar","Currencycode":"USD"},
{"Id":"148","Name":"Moldova","Alpha2": "MD","Alpha3":"MDA","Phonecode":"373","Currency":"Moldovan Leu","Currencycode":"MDL"},
{"Id":"149","Name":"Monaco","Alpha2": "MC","Alpha3":"MCO","Phonecode":"377","Currency":"Euro","Currencycode":"EUR"},
{"Id":"150","Name":"Mongolia","Alpha2": "MN","Alpha3":"MNG","Phonecode":"976","Currency":"Tugrik","Currencycode":"MNT"},
{"Id":"151","Name":"Montenegro","Alpha2": "ME","Alpha3":"MNE","Phonecode":"382","Currency":"Euro","Currencycode":"EUR"},
{"Id":"152","Name":"Montserrat","Alpha2": "MS","Alpha3":"MSR","Phonecode":"1-664","Currency":"East Caribbean Dollar","Currencycode":"XCD"},
{"Id":"153","Name":"Morocco","Alpha2": "MA","Alpha3":"MAR","Phonecode":"212","Currency":"Moroccan Dirham","Currencycode":"MAD"},
{"Id":"154","Name":"Mozambique","Alpha2": "MZ","Alpha3":"MOZ","Phonecode":"258","Currency":"Mozambique Metical","Currencycode":"MZN"},
{"Id":"155","Name":"Myanmar","Alpha2": "MM","Alpha3":"MMR","Phonecode":"95","Currency":"Kyat","Currencycode":"MMK"},
{"Id":"156","Name":"Namibia","Alpha2": "NA","Alpha3":"NAM","Phonecode":"264","Currency":"Namibia Dollar, Rand","Currencycode":"NAD, ZAR"},
{"Id":"157","Name":"Nauru","Alpha2": "NR","Alpha3":"NRU","Phonecode":"674","Currency":"Australian Dollar","Currencycode":"AUD"},
{"Id":"158","Name":"Nepal","Alpha2": "NP","Alpha3":"NPL","Phonecode":"977","Currency":"Nepalese Rupee","Currencycode":"NPR"},
{"Id":"159","Name":"Netherlands","Alpha2": "NL","Alpha3":"NLD","Phonecode":"31","Currency":"Euro","Currencycode":"EUR"},
{"Id":"160","Name":"Netherlands Antilles","Alpha2": "AN","Alpha3":"ANT","Phonecode":"599","Currency":"ANG","Currencycode":"ANG"},
{"Id":"161","Name":"New Caledonia","Alpha2": "NC","Alpha3":"NCL","Phonecode":"687","Currency":"CFP Franc","Currencycode":"XPF"},
{"Id":"162","Name":"New Zealand","Alpha2": "NZ","Alpha3":"NZL","Phonecode":"64","Currency":"New Zealand Dollar","Currencycode":"NZD"},
{"Id":"163","Name":"Nicaragua","Alpha2": "NI","Alpha3":"NIC","Phonecode":"505","Currency":"Cordoba Oro","Currencycode":"NIO"},
{"Id":"164","Name":"Niger","Alpha2": "NE","Alpha3":"NER","Phonecode":"227","Currency":"CFA Franc BCEAO","Currencycode":"XOF"},
{"Id":"165","Name":"Nigeria","Alpha2": "NG","Alpha3":"NGA","Phonecode":"234","Currency":"Naira","Currencycode":"NGN"},
{"Id":"166","Name":"Niue ","Alpha2": "NU","Alpha3":"NIU","Phonecode":"683","Currency":"New Zealand Dollar","Currencycode":"NZD"},
{"Id":"167","Name":"Norfolk Island","Alpha2": "NF","Alpha3":"NFK","Phonecode":"","Currency":"Australian Dollar","Currencycode":"AUD"},
{"Id":"168","Name":"Northern Mariana Islands","Alpha2": "MP","Alpha3":"MNP","Phonecode":"1-670","Currency":"US Dollar","Currencycode":"USD"},
{"Id":"169","Name":"Norway","Alpha2": "NO","Alpha3":"NOR","Phonecode":"47","Currency":"Norwegian Krone","Currencycode":"NOK"},
{"Id":"170","Name":"Oman","Alpha2": "OM","Alpha3":"OMN","Phonecode":"968","Currency":"Rial Omani","Currencycode":"OMR"},
{"Id":"171","Name":"Pakistan","Alpha2": "PK","Alpha3":"PAK","Phonecode":"92","Currency":"Pakistan Rupee","Currencycode":"PKR"},
{"Id":"172","Name":"Palau","Alpha2": "PW","Alpha3":"PLW","Phonecode":"680","Currency":"US Dollar","Currencycode":"USD"},
{"Id":"173","Name":"Palestinian Territory","Alpha2": "PS","Alpha3":"PSE","Phonecode":"970","Currency":"SHEKEL","Currencycode":"ILS"},
{"Id":"174","Name":"Panama","Alpha2": "PA","Alpha3":"PAN","Phonecode":"507","Currency":"Balboa, US Dollar","Currencycode":"PAB, USD"},
{"Id":"175","Name":"Papua New Guinea","Alpha2": "PG","Alpha3":"PNG","Phonecode":"675","Currency":"Kina","Currencycode":"PGK"},
{"Id":"176","Name":"Paraguay","Alpha2": "PY","Alpha3":"PRY","Phonecode":"595","Currency":"Guarani","Currencycode":"PYG"},
{"Id":"177","Name":"Peru","Alpha2": "PE","Alpha3":"PER","Phonecode":"51","Currency":"Nuevo Sol","Currencycode":"PEN"},
{"Id":"178","Name":"Philippines","Alpha2": "PH","Alpha3":"PHL","Phonecode":"63","Currency":"Philippine Peso","Currencycode":"PHP"},
{"Id":"179","Name":"Pitcairn","Alpha2": "PN","Alpha3":"PCN","Phonecode":"64","Currency":"New Zealand Dollar","Currencycode":"NZD"},
{"Id":"180","Name":"Poland","Alpha2": "PL","Alpha3":"POL","Phonecode":"48","Currency":"Zloty","Currencycode":"PLN"},
{"Id":"181","Name":"Portugal","Alpha2": "PT","Alpha3":"PRT","Phonecode":"351","Currency":"Euro","Currencycode":"EUR"},
{"Id":"182","Name":"Puerto Rico","Alpha2": "PR","Alpha3":"PRI","Phonecode":"1-787, 1-939","Currency":"US Dollar","Currencycode":"USD"},
{"Id":"183","Name":"Qatar","Alpha2": "QA","Alpha3":"QAT","Phonecode":"974","Currency":"Qatari Rial","Currencycode":"QAR"},
{"Id":"184","Name":"Réunion","Alpha2": "RE","Alpha3":"REU","Phonecode":"262","Currency":"EURO","Currencycode":"EUR"},
{"Id":"185","Name":"Romania","Alpha2": "RO","Alpha3":"ROU","Phonecode":"40","Currency":"Romanian Leu","Currencycode":"RON"},
{"Id":"186","Name":"Russian Federation","Alpha2": "RU","Alpha3":"RUS","Phonecode":"7","Currency":"Russian Ruble","Currencycode":"RUB"},
{"Id":"187","Name":"Rwanda","Alpha2": "RW","Alpha3":"RWA","Phonecode":"250","Currency":"Rwanda Franc","Currencycode":"RWF"},
{"Id":"188","Name":"Saint-Barthélemy","Alpha2": "BL","Alpha3":"BLM","Phonecode":"590","Currency":"Euro","Currencycode":"EUR"},
{"Id":"189","Name":"Saint Helena","Alpha2": "SH","Alpha3":"SHN","Phonecode":"290","Currency":"Saint Helena Pound","Currencycode":"SHP"},
{"Id":"190","Name":"Saint Kitts and Nevis","Alpha2": "KN","Alpha3":"KNA","Phonecode":"1-869","Currency":"East Caribbean Dollar","Currencycode":"XCD"},
{"Id":"191","Name":"Saint Lucia","Alpha2": "LC","Alpha3":"LCA","Phonecode":"1-758","Currency":"East Caribbean Dollar","Currencycode":"XCD"},
{"Id":"192","Name":"Saint-Martin (French part)","Alpha2": "MF","Alpha3":"MAF","Phonecode":"590","Currency":"Euro","Currencycode":"EUR"},
{"Id":"193","Name":"Saint Pierre and Miquelon ","Alpha2": "PM","Alpha3":"SPM","Phonecode":"508","Currency":"Euro","Currencycode":"EUR"},
{"Id":"194","Name":"Saint Vincent and Grenadines","Alpha2": "VC","Alpha3":"VCT","Phonecode":"1-784","Currency":"East Caribbean Dollar","Currencycode":"XCD"},
{"Id":"195","Name":"Samoa","Alpha2": "WS","Alpha3":"WSM","Phonecode":"685","Currency":"Tala","Currencycode":"WST"},
{"Id":"196","Name":"San Marino","Alpha2": "SM","Alpha3":"SMR","Phonecode":"378","Currency":"Euro","Currencycode":"EUR"},
{"Id":"197","Name":"Sao Tome and Principe","Alpha2": "ST","Alpha3":"STP","Phonecode":"239","Currency":"Dobra","Currencycode":"STN"},
{"Id":"198","Name":"Saudi Arabia","Alpha2": "SA","Alpha3":"SAU","Phonecode":"966","Currency":"Saudi Riyal","Currencycode":"SAR"},
{"Id":"199","Name":"Senegal","Alpha2": "SN","Alpha3":"SEN","Phonecode":"221","Currency":"CFA Franc BCEAO","Currencycode":"XOF"},
{"Id":"200","Name":"Serbia","Alpha2": "RS","Alpha3":"SRB","Phonecode":"381","Currency":"Serbian Dinar","Currencycode":"RSD"},
{"Id":"201","Name":"Seychelles","Alpha2": "SC","Alpha3":"SYC","Phonecode":"248","Currency":"Seychelles Rupee","Currencycode":"SCR"},
{"Id":"202","Name":"Sierra Leone","Alpha2": "SL","Alpha3":"SLE","Phonecode":"232","Currency":"Leone","Currencycode":"SLL"},
{"Id":"203","Name":"Singapore","Alpha2": "SG","Alpha3":"SGP","Phonecode":"65","Currency":"Singapore Dollar","Currencycode":"SGD"},
{"Id":"204","Name":"Sint Maarten","Alpha2": "sx","Alpha3":"sxm","Phonecode":"1-721","Currency":"Netherlands Antillean Guilder","Currencycode":"ANG"},
{"Id":"205","Name":"Slovakia","Alpha2": "SK","Alpha3":"SVK","Phonecode":"421","Currency":"Euro","Currencycode":"EUR"},
{"Id":"206","Name":"Slovenia","Alpha2": "SI","Alpha3":"SVN","Phonecode":"386","Currency":"Euro","Currencycode":"EUR"},
{"Id":"207","Name":"Solomon Islands","Alpha2": "SB","Alpha3":"SLB","Phonecode":"677","Currency":"Solomon Islands Dollar","Currencycode":"SBD"},
{"Id":"208","Name":"Somalia","Alpha2": "SO","Alpha3":"SOM","Phonecode":"252","Currency":"Somali Shilling","Currencycode":"SOS"},
{"Id":"209","Name":"South Africa","Alpha2": "ZA","Alpha3":"ZAF","Phonecode":"27","Currency":"Rand","Currencycode":"ZAR"},
{"Id":"210","Name":"South Georgia and the South Sandwich Islands","Alpha2": "GS","Alpha3":"SGS","Phonecode":"82","Currency":"No universal currency","Currencycode":""},
{"Id":"211","Name":"South Sudan","Alpha2": "SS","Alpha3":"SSD","Phonecode":"211","Currency":"South Sudanese Pound","Currencycode":"SSP"},
{"Id":"212","Name":"Spain","Alpha2": "ES","Alpha3":"ESP","Phonecode":"34","Currency":"Euro","Currencycode":"EUR"},
{"Id":"213","Name":"Sri Lanka","Alpha2": "LK","Alpha3":"LKA","Phonecode":"94","Currency":"Sri Lanka Rupee","Currencycode":"LKR"},
{"Id":"214","Name":"Sudan","Alpha2": "SD","Alpha3":"SDN","Phonecode":"249","Currency":"Sudanese Pound","Currencycode":"SDG"},
{"Id":"215","Name":"Suriname","Alpha2": "SR","Alpha3":"SUR","Phonecode":"597","Currency":"Surinam Dollar","Currencycode":"SRD"},
{"Id":"216","Name":"Svalbard and Jan Mayen Islands ","Alpha2": "SJ","Alpha3":"SJM","Phonecode":"47","Currency":"Norwegian Krone","Currencycode":"NOK"},
{"Id":"217","Name":"Swaziland","Alpha2": "SZ","Alpha3":"SWZ","Phonecode":"268","Currency":"Lilangeni","Currencycode":"SZL"},
{"Id":"218","Name":"Sweden","Alpha2": "SE","Alpha3":"SWE","Phonecode":"46","Currency":"Swedish Krona","Currencycode":"SEK"},
{"Id":"219","Name":"Switzerland","Alpha2": "CH","Alpha3":"CHE","Phonecode":"41","Currency":"WIR Euro,Swiss Franc,Swiss Franc","Currencycode":"CHE,CHF,CHW"},
{"Id":"220","Name":"Syrian Arab Republic (Syria)","Alpha2": "SY","Alpha3":"SYR","Phonecode":"963","Currency":"Syrian Pound","Currencycode":"SYP"},
{"Id":"221","Name":"Taiwan, Republic of China ","Alpha2": "TW","Alpha3":"TWN","Phonecode":"886","Currency":"New Taiwan Dollar","Currencycode":"TWD"},
{"Id":"222","Name":"Tajikistan","Alpha2": "TJ","Alpha3":"TJK","Phonecode":"992","Currency":"Somoni","Currencycode":"TJS"},
{"Id":"223","Name":"Tanzania, United Republic of ","Alpha2": "TZ","Alpha3":"TZA","Phonecode":"255","Currency":"Tanzanian Shilling","Currencycode":"TZS"},
{"Id":"224","Name":"Thailand","Alpha2": "TH","Alpha3":"THA","Phonecode":"66","Currency":"Baht","Currencycode":"THB"},
{"Id":"225","Name":"Timor-Leste","Alpha2": "TL","Alpha3":"TLS","Phonecode":"670","Currency":"US dollar ","Currencycode":"USD"},
{"Id":"226","Name":"Togo","Alpha2": "TG","Alpha3":"TGO","Phonecode":"228","Currency":"CFA Franc BCEAO","Currencycode":"XOF"},
{"Id":"227","Name":"Tokelau ","Alpha2": "TK","Alpha3":"TKL","Phonecode":"690","Currency":"New Zealand Dollar","Currencycode":"NZD"},
{"Id":"228","Name":"Tonga","Alpha2": "TO","Alpha3":"TON","Phonecode":"676","Currency":"Pa’anga","Currencycode":"TOP"},
{"Id":"229","Name":"Trinidad and Tobago","Alpha2": "TT","Alpha3":"TTO","Phonecode":"1-868","Currency":"Trinidad and Tobago Dollar","Currencycode":"TTD"},
{"Id":"230","Name":"Tunisia","Alpha2": "TN","Alpha3":"TUN","Phonecode":"216","Currency":"Tunisian Dinar","Currencycode":"TND"},
{"Id":"231","Name":"Turkey","Alpha2": "TR","Alpha3":"TUR","Phonecode":"90","Currency":"Turkish Lira","Currencycode":"TRY"},
{"Id":"232","Name":"Turkmenistan","Alpha2": "TM","Alpha3":"TKM","Phonecode":"993","Currency":"Turkmenistan New Manat","Currencycode":"TMT"},
{"Id":"233","Name":"Turks and Caicos Islands ","Alpha2": "TC","Alpha3":"TCA","Phonecode":"1-649","Currency":"US Dollar","Currencycode":"USD"},
{"Id":"234","Name":"Tuvalu","Alpha2": "TV","Alpha3":"TUV","Phonecode":"688","Currency":"Australian Dollar","Currencycode":"AUD"},
{"Id":"235","Name":"Virgin Islands, US","Alpha2": "VI","Alpha3":"VIR","Phonecode":"1-340","Currency":"DOLLAR (USD)","Currencycode":"USD"},
{"Id":"236","Name":"Uganda","Alpha2": "UG","Alpha3":"UGA","Phonecode":"256","Currency":"Uganda Shilling","Currencycode":"UGX"},
{"Id":"237","Name":"Ukraine","Alpha2": "UA","Alpha3":"UKR","Phonecode":"380","Currency":"Hryvnia","Currencycode":"UAH"},
{"Id":"238","Name":"United Arab Emirates","Alpha2": "AE","Alpha3":"ARE","Phonecode":"971","Currency":"UAE Dirham","Currencycode":"AED"},
{"Id":"239","Name":"United Kingdom","Alpha2": "GB","Alpha3":"GBR","Phonecode":"44","Currency":"Pound Sterling","Currencycode":"GBP"},
{"Id":"240","Name":"United States of America","Alpha2": "US","Alpha3":"USA","Phonecode":"1","Currency":"US Dollar","Currencycode":"USD"},
{"Id":"241","Name":"US Minor Outlying Islands","Alpha2": "UM","Alpha3":"UMI","Phonecode":"1","Currency":"US Dollar","Currencycode":"USD"},
{"Id":"242","Name":"Uruguay","Alpha2": "UY","Alpha3":"URY","Phonecode":"598","Currency":"US Dollar (Next day), Uruguay Peso en Unidades Indexadas (URUIURUI)","Currencycode":"USN, UYI"},
{"Id":"243","Name":"Uzbekistan","Alpha2": "UZ","Alpha3":"UZB","Phonecode":"998","Currency":"Peso Uruguayo","Currencycode":"UYU"},
{"Id":"244","Name":"Vanuatu","Alpha2": "VU","Alpha3":"VUT","Phonecode":"678","Currency":"Uzbekistan Sum","Currencycode":"UZS"},
{"Id":"245","Name":"Venezuela (Bolivarian Republic)","Alpha2": "VE","Alpha3":"VEN","Phonecode":"58","Currency":"Vatu, Bolivar","Currencycode":"VUV, VEF"},
{"Id":"246","Name":"Viet Nam","Alpha2": "VN","Alpha3":"VNM","Phonecode":"84","Currency":"Dong","Currencycode":"VND"},
{"Id":"247","Name":"Wallis and Futuna Islands ","Alpha2": "WF","Alpha3":"WLF","Phonecode":"681","Currency":"CFP Franc","Currencycode":"XPF"},
{"Id":"248","Name":"Western Sahara ","Alpha2": "EH","Alpha3":"ESH","Phonecode":"212","Currency":"Moroccan Dirham","Currencycode":"MAD"},
{"Id":"249","Name":"Yemen","Alpha2": "YE","Alpha3":"YEM","Phonecode":"967","Currency":"Yemeni Rial","Currencycode":"YER"},
{"Id":"250","Name":"Zambia","Alpha2": "ZM","Alpha3":"ZMB","Phonecode":"260","Currency":"Zambian Kwacha","Currencycode":"ZMW"},
{"Id":"251","Name":"Zimbabwe","Alpha2": "ZW","Alpha3":"ZWE","Phonecode":"263","Currency":"Zimbabwe Dollar","Currencycode":"ZWL"}
]
